CCSDS_OMM_VERS = 2.0
CREATION_DATE  = 
ORIGINATOR     = 

OBJECT_NAME    = ATLAS CENTAUR 2
OBJECT_ID      = 1963-047A
CENTER_NAME    = EARTH
REF_FRAME      = TEME
TIME_SYSTEM    = UTC
MEAN_ELEMENT_THEORY = SGP/SGP4

EPOCH          = 2026-02-09T04:42:40.512672
MEAN_MOTION    = 14.11988073
ECCENTRICITY   = .054811
INCLINATION    = 30.3567
RA_OF_ASC_NODE = 354.8671
ARG_OF_PERICENTER = 189.2168
MEAN_ANOMALY   = 169.8006

EPHEMERIS_TYPE = 0
CLASSIFICATION_TYPE = U
NORAD_CAT_ID   = 694
ELEMENT_SET_NO = 999
REV_AT_EPOCH   = 12759
BSTAR          = .17124E-3
MEAN_MOTION_DOT = .1514E-4
MEAN_MOTION_DDOT = 0

CCSDS_OMM_VERS = 2.0
CREATION_DATE  = 
ORIGINATOR     = 

OBJECT_NAME    = THOR AGENA D R/B
OBJECT_ID      = 1964-002A
CENTER_NAME    = EARTH
REF_FRAME      = TEME
TIME_SYSTEM    = UTC
MEAN_ELEMENT_THEORY = SGP/SGP4

EPOCH          = 2026-02-09T11:21:19.001376
MEAN_MOTION    = 14.34002612
ECCENTRICITY   = .0032593
INCLINATION    = 99.1230
RA_OF_ASC_NODE = 52.2739
ARG_OF_PERICENTER = 342.3725
MEAN_ANOMALY   = 17.6324

EPHEMERIS_TYPE = 0
CLASSIFICATION_TYPE = U
NORAD_CAT_ID   = 733
ELEMENT_SET_NO = 999
REV_AT_EPOCH   = 23425
BSTAR          = .12551E-3
MEAN_MOTION_DOT = .303E-5
MEAN_MOTION_DDOT = 0

CCSDS_OMM_VERS = 2.0
CREATION_DATE  = 
ORIGINATOR     = 

OBJECT_NAME    = SL-3 R/B
OBJECT_ID      = 1964-053B
CENTER_NAME    = EARTH
REF_FRAME      = TEME
TIME_SYSTEM    = UTC
MEAN_ELEMENT_THEORY = SGP/SGP4

EPOCH          = 2026-02-09T10:16:45.932160
MEAN_MOTION    = 14.61338076
ECCENTRICITY   = .0078351
INCLINATION    = 65.0763
RA_OF_ASC_NODE = 54.0903
ARG_OF_PERICENTER = 301.1821
MEAN_ANOMALY   = 58.1613

EPHEMERIS_TYPE = 0
CLASSIFICATION_TYPE = U
NORAD_CAT_ID   = 877
ELEMENT_SET_NO = 999
REV_AT_EPOCH   = 26266
BSTAR          = .10892E-3
MEAN_MOTION_DOT = .437E-5
MEAN_MOTION_DDOT = 0

CCSDS_OMM_VERS = 2.0
CREATION_DATE  = 
ORIGINATOR     = 

OBJECT_NAME    = SL-8 R/B
OBJECT_ID      = 1967-045B
CENTER_NAME    = EARTH
REF_FRAME      = TEME
TIME_SYSTEM    = UTC
MEAN_ELEMENT_THEORY = SGP/SGP4

EPOCH          = 2026-02-09T09:49:39.732960
MEAN_MOTION    = 14.45594308
ECCENTRICITY   = .0063087
INCLINATION    = 74.0102
RA_OF_ASC_NODE = 40.9013
ARG_OF_PERICENTER = 54.2979
MEAN_ANOMALY   = 306.4026

EPHEMERIS_TYPE = 0
CLASSIFICATION_TYPE = U
NORAD_CAT_ID   = 2802
ELEMENT_SET_NO = 999
REV_AT_EPOCH   = 8493
BSTAR          = .11216E-3
MEAN_MOTION_DOT = .378E-5
MEAN_MOTION_DDOT = 0

CCSDS_OMM_VERS = 2.0
CREATION_DATE  = 
ORIGINATOR     = 

OBJECT_NAME    = SL-8 R/B
OBJECT_ID      = 1968-040B
CENTER_NAME    = EARTH
REF_FRAME      = TEME
TIME_SYSTEM    = UTC
MEAN_ELEMENT_THEORY = SGP/SGP4

EPOCH          = 2026-02-09T08:34:02.336736
MEAN_MOTION    = 15.03041649
ECCENTRICITY   = .0025293
INCLINATION    = 74.0324
RA_OF_ASC_NODE = 11.5731
ARG_OF_PERICENTER = 203.7049
MEAN_ANOMALY   = 156.2976

EPHEMERIS_TYPE = 0
CLASSIFICATION_TYPE = U
NORAD_CAT_ID   = 3230
ELEMENT_SET_NO = 999
REV_AT_EPOCH   = 8575
BSTAR          = .27614E-3
MEAN_MOTION_DOT = .3704E-4
MEAN_MOTION_DDOT = 0

CCSDS_OMM_VERS = 2.0
CREATION_DATE  = 
ORIGINATOR     = 

OBJECT_NAME    = OAO 2
OBJECT_ID      = 1968-110A
CENTER_NAME    = EARTH
REF_FRAME      = TEME
TIME_SYSTEM    = UTC
MEAN_ELEMENT_THEORY = SGP/SGP4

EPOCH          = 2026-02-09T10:17:45.725280
MEAN_MOTION    = 14.47290505
ECCENTRICITY   = .0005815
INCLINATION    = 34.9938
RA_OF_ASC_NODE = 63.0051
ARG_OF_PERICENTER = 326.2810
MEAN_ANOMALY   = 33.7510

EPHEMERIS_TYPE = 0
CLASSIFICATION_TYPE = U
NORAD_CAT_ID   = 3597
ELEMENT_SET_NO = 999
REV_AT_EPOCH   = 1500
BSTAR          = .9457E-4
MEAN_MOTION_DOT = .332E-5
MEAN_MOTION_DDOT = 0

CCSDS_OMM_VERS = 2.0
CREATION_DATE  = 
ORIGINATOR     = 

OBJECT_NAME    = ISIS 1
OBJECT_ID      = 1969-009A
CENTER_NAME    = EARTH
REF_FRAME      = TEME
TIME_SYSTEM    = UTC
MEAN_ELEMENT_THEORY = SGP/SGP4

EPOCH          = 2026-02-09T09:29:50.587296
MEAN_MOTION    = 11.30402723
ECCENTRICITY   = .1707826
INCLINATION    = 88.4555
RA_OF_ASC_NODE = 158.3914
ARG_OF_PERICENTER = 146.2503
MEAN_ANOMALY   = 226.0143

EPHEMERIS_TYPE = 0
CLASSIFICATION_TYPE = U
NORAD_CAT_ID   = 3669
ELEMENT_SET_NO = 999
REV_AT_EPOCH   = 34533
BSTAR          = .25182E-3
MEAN_MOTION_DOT = .372E-5
MEAN_MOTION_DDOT = 0

CCSDS_OMM_VERS = 2.0
CREATION_DATE  = 
ORIGINATOR     = 

OBJECT_NAME    = SERT 2
OBJECT_ID      = 1970-009A
CENTER_NAME    = EARTH
REF_FRAME      = TEME
TIME_SYSTEM    = UTC
MEAN_ELEMENT_THEORY = SGP/SGP4

EPOCH          = 2026-02-09T12:09:20.824128
MEAN_MOTION    = 13.58727122
ECCENTRICITY   = .0004066
INCLINATION    = 99.2722
RA_OF_ASC_NODE = 345.1480
ARG_OF_PERICENTER = 231.9818
MEAN_ANOMALY   = 242.0733

EPHEMERIS_TYPE = 0
CLASSIFICATION_TYPE = U
NORAD_CAT_ID   = 4327
ELEMENT_SET_NO = 999
REV_AT_EPOCH   = 77606
BSTAR          = .12126E-3
MEAN_MOTION_DOT = .47E-6
MEAN_MOTION_DDOT = 0

CCSDS_OMM_VERS = 2.0
CREATION_DATE  = 
ORIGINATOR     = 

OBJECT_NAME    = SL-3 R/B
OBJECT_ID      = 1971-028B
CENTER_NAME    = EARTH
REF_FRAME      = TEME
TIME_SYSTEM    = UTC
MEAN_ELEMENT_THEORY = SGP/SGP4

EPOCH          = 2026-02-09T11:53:47.261760
MEAN_MOTION    = 15.58883793
ECCENTRICITY   = .0017395
INCLINATION    = 81.2347
RA_OF_ASC_NODE = 86.7965
ARG_OF_PERICENTER = 33.9523
MEAN_ANOMALY   = 326.2839

EPHEMERIS_TYPE = 0
CLASSIFICATION_TYPE = U
NORAD_CAT_ID   = 5118
ELEMENT_SET_NO = 999
REV_AT_EPOCH   = 98427
BSTAR          = .46347E-3
MEAN_MOTION_DOT = .36269E-3
MEAN_MOTION_DDOT = 0

CCSDS_OMM_VERS = 2.0
CREATION_DATE  = 
ORIGINATOR     = 

OBJECT_NAME    = ASTEX 1
OBJECT_ID      = 1971-089A
CENTER_NAME    = EARTH
REF_FRAME      = TEME
TIME_SYSTEM    = UTC
MEAN_ELEMENT_THEORY = SGP/SGP4

EPOCH          = 2026-02-09T08:03:36.688320
MEAN_MOTION    = 14.50736469
ECCENTRICITY   = .0015836
INCLINATION    = 92.7152
RA_OF_ASC_NODE = 142.5864
ARG_OF_PERICENTER = 172.3319
MEAN_ANOMALY   = 187.8133

EPHEMERIS_TYPE = 0
CLASSIFICATION_TYPE = U
NORAD_CAT_ID   = 5560
ELEMENT_SET_NO = 999
REV_AT_EPOCH   = 85819
BSTAR          = .19169E-3
MEAN_MOTION_DOT = .754E-5
MEAN_MOTION_DDOT = 0

CCSDS_OMM_VERS = 2.0
CREATION_DATE  = 
ORIGINATOR     = 

OBJECT_NAME    = SL-8 R/B
OBJECT_ID      = 1971-119B
CENTER_NAME    = EARTH
REF_FRAME      = TEME
TIME_SYSTEM    = UTC
MEAN_ELEMENT_THEORY = SGP/SGP4

EPOCH          = 2026-02-09T11:15:36.207648
MEAN_MOTION    = 14.36984674
ECCENTRICITY   = .0553651
INCLINATION    = 73.8854
RA_OF_ASC_NODE = 228.4352
ARG_OF_PERICENTER = 200.8651
MEAN_ANOMALY   = 156.9099

EPHEMERIS_TYPE = 0
CLASSIFICATION_TYPE = U
NORAD_CAT_ID   = 5730
ELEMENT_SET_NO = 999
REV_AT_EPOCH   = 65143
BSTAR          = .71104E-3
MEAN_MOTION_DOT = .13705E-3
MEAN_MOTION_DDOT = 0

CCSDS_OMM_VERS = 2.0
CREATION_DATE  = 
ORIGINATOR     = 

OBJECT_NAME    = OAO 3 (COPERNICUS)
OBJECT_ID      = 1972-065A
CENTER_NAME    = EARTH
REF_FRAME      = TEME
TIME_SYSTEM    = UTC
MEAN_ELEMENT_THEORY = SGP/SGP4

EPOCH          = 2026-02-09T12:07:40.867104
MEAN_MOTION    = 14.59972787
ECCENTRICITY   = .0007216
INCLINATION    = 35.0056
RA_OF_ASC_NODE = 97.8878
ARG_OF_PERICENTER = 289.0282
MEAN_ANOMALY   = 201.9261

EPHEMERIS_TYPE = 0
CLASSIFICATION_TYPE = U
NORAD_CAT_ID   = 6153
ELEMENT_SET_NO = 999
REV_AT_EPOCH   = 84207
BSTAR          = .10151E-3
MEAN_MOTION_DOT = .473E-5
MEAN_MOTION_DDOT = 0

