ATLAS CENTAUR 2         
1 00694U 63047A   26040.19630223  .00001514  00000+0  17124-3 0  9995
2 00694  30.3567 354.8671 0548110 189.2168 169.8006 14.11988073127599
THOR AGENA D R/B        
1 00733U 64002A   26040.47313659  .00000303  00000+0  12551-3 0  9997
2 00733  99.1230  52.2739 0032593 342.3725  17.6324 14.34002612234257
SL-3 R/B                
1 00877U 64053B   26040.42830940  .00000437  00000+0  10892-3 0  9998
2 00877  65.0763  54.0903 0078351 301.1821  58.1613 14.61338076262667
SL-8 R/B                
1 02802U 67045B   26040.40948765  .00000378  00000+0  11216-3 0  9990
2 02802  74.0102  40.9013 0063087  54.2979 306.4026 14.45594308 84933
SL-8 R/B                
1 03230U 68040B   26040.35697149  .00003704  00000+0  27614-3 0  9998
2 03230  74.0324  11.5731 0025293 203.7049 156.2976 15.03041649 85758
OAO 2                   
1 03597U 68110A   26040.42900145  .00000332  00000+0  94570-4 0  9993
2 03597  34.9938  63.0051 0005815 326.2810  33.7510 14.47290505 15000
ISIS 1                  
1 03669U 69009A   26040.39572439  .00000372  00000+0  25182-3 0  9994
2 03669  88.4555 158.3914 1707826 146.2503 226.0143 11.30402723345333
SERT 2                  
1 04327U 70009A   26040.50649102  .00000047  00000+0  12126-3 0  9996
2 04327  99.2722 345.1480 0004066 231.9818 242.0733 13.58727122776067
SL-3 R/B                
1 05118U 71028B   26040.49568590  .00036269  00000+0  46347-3 0  9993
2 05118  81.2347  86.7965 0017395  33.9523 326.2839 15.58883793984273
ASTEX 1                 
1 05560U 71089A   26040.33584130  .00000754  00000+0  19169-3 0  9994
2 05560  92.7152 142.5864 0015836 172.3319 187.8133 14.50736469858190
SL-8 R/B                
1 05730U 71119B   26040.46916907  .00013705  00000+0  71104-3 0  9999
2 05730  73.8854 228.4352 0553651 200.8651 156.9099 14.36984674651435
OAO 3 (COPERNICUS)      
1 06153U 72065A   26040.50533411  .00000473  00000+0  10151-3 0  9993
2 06153  35.0056  97.8878 0007216 289.0282 201.9261 14.59972787842071
